start=new Date('2023-01-05T00:00:00.000Z').valueOf();
sats=[{"TIME_SYSTEM":"UTC","LAUNCH_DATE":"2021-05-26","MEAN_ELEMENT_THEORY":"SGP4","INCLINATION":"53.0549","EPOCH":"2023-01-04T11:04:04.611072","FILE":"3731823","MEAN_MOTION_DDOT":"0.0000000000000","MEAN_MOTION":"15.06414794","PERIAPSIS":"545.901","OBJECT_ID":"2021-044AE","GP_ID":"222157851","CENTER_NAME":"EARTH","SITE":"AFETR","TLE_LINE2":"2 48666  53.0549 280.5740 0001830  64.8703 295.2476 15.06414794 88961","COUNTRY_CODE":"US","REF_FRAME":"TEME","REV_AT_EPOCH":"8896","RA_OF_ASC_NODE":"280.5740","MEAN_ANOMALY":"295.2476","EPHEMERIS_TYPE":"0","BSTAR":"0.00081162000000","MEAN_MOTION_DOT":"0.00011833","PERIOD":"95.591","DECAY_DATE":null,"CLASSIFICATION_TYPE":"U","ELEMENT_SET_NO":"999","NORAD_CAT_ID":"48666","APOAPSIS":"548.436","TLE_LINE1":"1 48666U 21044AE  23004.46116448  .00011833  00000-0  81162-3 0  9991","RCS_SIZE":"LARGE","OBJECT_NAME":"STARLINK-2666","ECCENTRICITY":"0.00018300","ARG_OF_PERICENTER":"64.8703","SEMIMAJOR_AXIS":"6925.303","OBJECT_TYPE":"PAYLOAD"},{"PERIAPSIS":"546.162","OBJECT_ID":"2021-044AF","MEAN_MOTION_DDOT":"0.0000000000000","FILE":"3731954","MEAN_MOTION":"15.06403243","TIME_SYSTEM":"UTC","LAUNCH_DATE":"2021-05-26","EPOCH":"2023-01-04T03:59:22.208064","INCLINATION":"53.0541","MEAN_ELEMENT_THEORY":"SGP4","REF_FRAME":"TEME","REV_AT_EPOCH":"8977","RA_OF_ASC_NODE":"281.4244","COUNTRY_CODE":"US","SITE":"AFETR","TLE_LINE2":"2 48667  53.0541 281.4244 0001504  68.7001 291.4149 15.06403243 89777","GP_ID":"222191859","CENTER_NAME":"EARTH","ELEMENT_SET_NO":"999","NORAD_CAT_ID":"48667","DECAY_DATE":null,"CLASSIFICATION_TYPE":"U","MEAN_MOTION_DOT":"0.00002822","PERIOD":"95.592","MEAN_ANOMALY":"291.4149","BSTAR":"0.00020822000000","EPHEMERIS_TYPE":"0","ARG_OF_PERICENTER":"68.7001","SEMIMAJOR_AXIS":"6925.339","OBJECT_TYPE":"PAYLOAD","OBJECT_NAME":"STARLINK-2735","ECCENTRICITY":"0.00015040","RCS_SIZE":"LARGE","APOAPSIS":"548.245","TLE_LINE1":"1 48667U 21044AF  23004.16622926  .00002822  00000-0  20822-3 0  9996"},{"TIME_SYSTEM":"UTC","MEAN_ELEMENT_THEORY":"SGP4","LAUNCH_DATE":"2021-05-26","INCLINATION":"53.0536","EPOCH":"2023-01-04T11:51:45.883584","MEAN_MOTION_DDOT":"0.0000000000000","FILE":"3731954","MEAN_MOTION":"15.06419290","PERIAPSIS":"546.178","OBJECT_ID":"2021-044AG","GP_ID":"222191853","CENTER_NAME":"EARTH","SITE":"AFETR","TLE_LINE2":"2 48668  53.0536 279.9406 0001410  84.9542 275.1608 15.06419290 89880","COUNTRY_CODE":"US","REF_FRAME":"TEME","REV_AT_EPOCH":"8988","RA_OF_ASC_NODE":"279.9406","MEAN_ANOMALY":"275.1608","BSTAR":"0.00136750000000","EPHEMERIS_TYPE":"0","MEAN_MOTION_DOT":"0.00020157","PERIOD":"95.591","DECAY_DATE":null,"CLASSIFICATION_TYPE":"U","ELEMENT_SET_NO":"999","NORAD_CAT_ID":"48668","APOAPSIS":"548.131","TLE_LINE1":"1 48668U 21044AG  23004.49428106  .00020157  00000-0  13675-2 0  9995","RCS_SIZE":"LARGE","OBJECT_NAME":"STARLINK-2738","ECCENTRICITY":"0.00014100","ARG_OF_PERICENTER":"84.9542","SEMIMAJOR_AXIS":"6925.289","OBJECT_TYPE":"PAYLOAD"},{"SITE":"AFETR","TLE_LINE2":"2 48669  53.0554 279.9509 0001431  78.3922 281.7228 15.06407459 88971","GP_ID":"222158102","CENTER_NAME":"EARTH","REF_FRAME":"TEME","REV_AT_EPOCH":"8897","RA_OF_ASC_NODE":"279.9509","COUNTRY_CODE":"US","TIME_SYSTEM":"UTC","LAUNCH_DATE":"2021-05-26","INCLINATION":"53.0554","MEAN_ELEMENT_THEORY":"SGP4","EPOCH":"2023-01-04T11:46:27.338880","PERIAPSIS":"546.200","OBJECT_ID":"2021-044AH","FILE":"3731823","MEAN_MOTION_DDOT":"0.0000000000000","MEAN_MOTION":"15.06407459","RCS_SIZE":"LARGE","APOAPSIS":"548.182","TLE_LINE1":"1 48669U 21044AH  23004.49059420  .00004056  00000-0  29094-3 0  9998","SEMIMAJOR_AXIS":"6925.326","ARG_OF_PERICENTER":"78.3922","OBJECT_TYPE":"PAYLOAD","ECCENTRICITY":"0.00014310","OBJECT_NAME":"STARLINK-2707","MEAN_MOTION_DOT":"0.00004056","PERIOD":"95.592","MEAN_ANOMALY":"281.7228","BSTAR":"0.00029094000000","EPHEMERIS_TYPE":"0","ELEMENT_SET_NO":"999","NORAD_CAT_ID":"48669","DECAY_DATE":null,"CLASSIFICATION_TYPE":"U"},{"OBJECT_NAME":"STARLINK-2763","ECCENTRICITY":"0.00017830","ARG_OF_PERICENTER":"66.5064","SEMIMAJOR_AXIS":"6925.364","OBJECT_TYPE":"PAYLOAD","TLE_LINE1":"1 48670U 21044AJ  23004.15517895  .00002742  00000-0  20294-3 0  9991","APOAPSIS":"548.464","RCS_SIZE":"LARGE","CLASSIFICATION_TYPE":"U","DECAY_DATE":null,"NORAD_CAT_ID":"48670","ELEMENT_SET_NO":"999","MEAN_ANOMALY":"293.6112","BSTAR":"0.00020294000000","EPHEMERIS_TYPE":"0","MEAN_MOTION_DOT":"0.00002742","PERIOD":"95.592","COUNTRY_CODE":"US","RA_OF_ASC_NODE":"281.4572","REV_AT_EPOCH":"8976","REF_FRAME":"TEME","CENTER_NAME":"EARTH","GP_ID":"222192009","TLE_LINE2":"2 48670  53.0552 281.4572 0001783  66.5064 293.6112 15.06395013 89769","SITE":"AFETR","MEAN_MOTION_DDOT":"0.0000000000000","FILE":"3731956","MEAN_MOTION":"15.06395013","PERIAPSIS":"545.994","OBJECT_ID":"2021-044AJ","TIME_SYSTEM":"UTC","MEAN_ELEMENT_THEORY":"SGP4","LAUNCH_DATE":"2021-05-26","INCLINATION":"53.0552","EPOCH":"2023-01-04T03:43:27.461280"},{"SEMIMAJOR_AXIS":"6925.301","ARG_OF_PERICENTER":"64.1528","OBJECT_TYPE":"PAYLOAD","ECCENTRICITY":"0.00016650","OBJECT_NAME":"STARLINK-2745","RCS_SIZE":"LARGE","TLE_LINE1":"1 48671U 21044AK  23004.48322023  .00007527  00000-0  52348-3 0  9996","APOAPSIS":"548.319","NORAD_CAT_ID":"48671","ELEMENT_SET_NO":"999","CLASSIFICATION_TYPE":"U","DECAY_DATE":null,"MEAN_MOTION_DOT":"0.00007527","PERIOD":"95.591","MEAN_ANOMALY":"295.9632","BSTAR":"0.00052348000000","EPHEMERIS_TYPE":"0","REV_AT_EPOCH":"8897","RA_OF_ASC_NODE":"279.9969","REF_FRAME":"TEME","COUNTRY_CODE":"US","TLE_LINE2":"2 48671  53.0548 279.9969 0001665  64.1528 295.9632 15.06415475 88974","SITE":"AFETR","CENTER_NAME":"EARTH","GP_ID":"222158603","PERIAPSIS":"546.013","OBJECT_ID":"2021-044AK","MEAN_MOTION_DDOT":"0.0000000000000","FILE":"3731823","MEAN_MOTION":"15.06415475","TIME_SYSTEM":"UTC","LAUNCH_DATE":"2021-05-26","INCLINATION":"53.0548","EPOCH":"2023-01-04T11:35:50.227872","MEAN_ELEMENT_THEORY":"SGP4"},{"TIME_SYSTEM":"UTC","LAUNCH_DATE":"2021-05-26","EPOCH":"2023-01-04T11:30:32.191200","INCLINATION":"53.0544","MEAN_ELEMENT_THEORY":"SGP4","FILE":"3731823","MEAN_MOTION_DDOT":"0.0000000000000","MEAN_MOTION":"15.06397033","PERIAPSIS":"546.049","OBJECT_ID":"2021-044AL","CENTER_NAME":"EARTH","GP_ID":"222158847","TLE_LINE2":"2 48672  53.0544 280.0075 0001695  55.4664 304.6484 15.06397033 88971","SITE":"AFETR","COUNTRY_CODE":"US","RA_OF_ASC_NODE":"280.0075","REV_AT_EPOCH":"8897","REF_FRAME":"TEME","MEAN_ANOMALY":"304.6484","BSTAR":"0.00007685300000","EPHEMERIS_TYPE":"0","MEAN_MOTION_DOT":"0.00000863","PERIOD":"95.592","CLASSIFICATION_TYPE":"U","DECAY_DATE":null,"NORAD_CAT_ID":"48672","ELEMENT_SET_NO":"999","TLE_LINE1":"1 48672U 21044AL  23004.47953925  .00000863  00000-0  76853-4 0  9991","APOAPSIS":"548.396","RCS_SIZE":"LARGE","OBJECT_NAME":"STARLINK-2705","ECCENTRICITY":"0.00016950","ARG_OF_PERICENTER":"55.4664","SEMIMAJOR_AXIS":"6925.358","OBJECT_TYPE":"PAYLOAD"},{"TIME_SYSTEM":"UTC","LAUNCH_DATE":"2021-05-26","MEAN_ELEMENT_THEORY":"SGP4","INCLINATION":"53.0530","EPOCH":"2023-01-04T11:25:13.987776","PERIAPSIS":"546.047","OBJECT_ID":"2021-044AM","MEAN_MOTION_DDOT":"0.0000000000000","FILE":"3731823","MEAN_MOTION":"15.06398649","SITE":"AFETR","TLE_LINE2":"2 48673  53.0530 280.0196 0001691  62.9653 297.1508 15.06398649 88975","GP_ID":"222157602","CENTER_NAME":"EARTH","REF_FRAME":"TEME","RA_OF_ASC_NODE":"280.0196","REV_AT_EPOCH":"8897","COUNTRY_CODE":"US","MEAN_MOTION_DOT":"0.00003018","PERIOD":"95.592","MEAN_ANOMALY":"297.1508","BSTAR":"0.00022145000000","EPHEMERIS_TYPE":"0","ELEMENT_SET_NO":"999","NORAD_CAT_ID":"48673","DECAY_DATE":null,"CLASSIFICATION_TYPE":"U","RCS_SIZE":"LARGE","APOAPSIS":"548.389","TLE_LINE1":"1 48673U 21044AM  23004.47585634  .00003018  00000-0  22145-3 0  9999","SEMIMAJOR_AXIS":"6925.353","ARG_OF_PERICENTER":"62.9653","OBJECT_TYPE":"PAYLOAD","OBJECT_NAME":"STARLINK-2711","ECCENTRICITY":"0.00016910"},{"RCS_SIZE":"LARGE","TLE_LINE1":"1 48674U 21044AN  23004.47121253  .00008364  00000-0  57946-3 0  9999","APOAPSIS":"548.421","ARG_OF_PERICENTER":"51.9662","SEMIMAJOR_AXIS":"6925.297","OBJECT_TYPE":"PAYLOAD","OBJECT_NAME":"STARLINK-2712","ECCENTRICITY":"0.00018180","MEAN_MOTION_DOT":"0.00008364","PERIOD":"95.591","MEAN_ANOMALY":"308.1491","BSTAR":"0.00057946000000","EPHEMERIS_TYPE":"0","NORAD_CAT_ID":"48674","ELEMENT_SET_NO":"999","CLASSIFICATION_TYPE":"U","DECAY_DATE":null,"TLE_LINE2":"2 48674  53.0545 280.0427 0001818  51.9662 308.1491 15.06416858 88975","SITE":"AFETR","CENTER_NAME":"EARTH","GP_ID":"222157852","REV_AT_EPOCH":"8897","RA_OF_ASC_NODE":"280.0427","REF_FRAME":"TEME","COUNTRY_CODE":"US","TIME_SYSTEM":"UTC","MEAN_ELEMENT_THEORY":"SGP4","LAUNCH_DATE":"2021-05-26","INCLINATION":"53.0545","EPOCH":"2023-01-04T11:18:32.762592","PERIAPSIS":"545.903","OBJECT_ID":"2021-044AN","FILE":"3731823","MEAN_MOTION_DDOT":"0.0000000000000","MEAN_MOTION":"15.06416858"},{"BSTAR":"0.00017665000000","EPHEMERIS_TYPE":"0","MEAN_ANOMALY":"303.3691","PERIOD":"95.593","MEAN_MOTION_DOT":"0.00002349","DECAY_DATE":null,"CLASSIFICATION_TYPE":"U","ELEMENT_SET_NO":"999","NORAD_CAT_ID":"48675","APOAPSIS":"548.530","TLE_LINE1":"1 48675U 21044AP  23004.20310443  .00002349  00000-0  17665-3 0  9993","RCS_SIZE":"MEDIUM","ECCENTRICITY":"0.00018100","OBJECT_NAME":"STARLINK-2737","OBJECT_TYPE":"PAYLOAD","SEMIMAJOR_AXIS":"6925.412","ARG_OF_PERICENTER":"56.7471","INCLINATION":"53.0533","LAUNCH_DATE":"2021-05-26","MEAN_ELEMENT_THEORY":"SGP4","EPOCH":"2023-01-04T04:52:28.222752","TIME_SYSTEM":"UTC","MEAN_MOTION":"15.06379411","FILE":"3731823","MEAN_MOTION_DDOT":"0.0000000000000","OBJECT_ID":"2021-044AP","PERIAPSIS":"546.023","GP_ID":"222159104","CENTER_NAME":"EARTH","SITE":"AFETR","TLE_LINE2":"2 48675  53.0533 281.2547 0001810  56.7471 303.3691 15.06379411 88930","COUNTRY_CODE":"US","REF_FRAME":"TEME","RA_OF_ASC_NODE":"281.2547","REV_AT_EPOCH":"8893"}];
